{
  "type": "FeatureCollection",
  "name": "Ancora centres EXAMPLE template",
  "features": [
    {
      "type": "Feature",
      "id": "ancora-example-hemingways",
      "properties": {
        "name": "Hemingways Shopping Centre",
        "geocoded_name": "Hemingways Mall",
        "geocoded_address": "Hemingways Mall, East London, South Africa",
        "locality": "East London",
        "region": "Eastern Cape",
        "country": "South Africa",
        "mandate_status": "EXAMPLE",
        "gla_sqm": null,
        "units": null,
        "units_occupied": null,
        "units_vacant": null,
        "example": true,
        "source_note": "EXAMPLE only — copy live PropertyCentral dump to public/sites/ancora-centres.geojson locally (gitignored). Never invent occupancy or tenants."
      },
      "geometry": {
        "type": "Point",
        "coordinates": [27.9036, -33.0117]
      }
    },
    {
      "type": "Feature",
      "id": "ancora-example-wijnland",
      "properties": {
        "name": "Wijnland Junction",
        "geocoded_name": "Wijnland Junction",
        "geocoded_address": "Wijnland Junction, Eerste River, South Africa",
        "locality": "Eerste River",
        "region": "Western Cape",
        "country": "South Africa",
        "mandate_status": "EXAMPLE",
        "gla_sqm": null,
        "units": 12,
        "units_occupied": 8,
        "units_vacant": 4,
        "example": true,
        "source_note": "EXAMPLE — sample unit counts for UI only. Live file is gitignored."
      },
      "geometry": {
        "type": "Point",
        "coordinates": [18.8602, -33.9321]
      }
    },
    {
      "type": "Feature",
      "id": "ancora-example-outeniqua",
      "properties": {
        "name": "Outeniqua Lifestyle Centre",
        "geocoded_name": "Outeniqua Lifestyle Centre",
        "geocoded_address": "Outeniqua Lifestyle Centre, George, South Africa",
        "locality": "George",
        "region": "Western Cape",
        "country": "South Africa",
        "mandate_status": "EXAMPLE",
        "gla_sqm": null,
        "units": null,
        "units_occupied": null,
        "units_vacant": null,
        "example": true,
        "source_note": "EXAMPLE — replace with live Ancora dump at ancora-centres.geojson (not committed)."
      },
      "geometry": {
        "type": "Point",
        "coordinates": [22.4584, -33.9775]
      }
    }
  ]
}
